{"fetched_at":"2026-03-30T06:02:59Z","count":15439,"tles":[{"name":"STARLINK-5921","line1":"1 55926U 23037N   26087.82598041 -.00000476  00000+0 -32113-4 0  9994","line2":"2 55926  69.9998 236.3247 0003310 262.1460  97.9323 14.98330555166845","category":"Starlink"}]}