{
  "norad_id": 55926,
  "name": "STARLINK-5921",
  "history": [
    {
      "epoch": "2026-03-28T19:49:24.707424",
      "apogee_km": 574.3552439473324,
      "perigee_km": 569.7531053591238,
      "latitude_deg": -28.42652517029885,
      "longitude_deg": -148.10588063998148,
      "semi_major_axis_km": 6950.191174653228,
      "eccentricity": 0.00033108,
      "inclination_deg": 69.9998,
      "raan_deg": 236.3247,
      "arg_perigee_deg": 262.146,
      "mean_anomaly_deg": 97.9323,
      "mean_motion_rev_day": 14.98330555
    }
  ]
}